GLOBALSTAR M063 [+]     
1 26081U 00008A   23237.47683137 -.00000086  00000+0 -49903-4 0  9995
2 26081  51.9958  54.2349 0005209 119.5166 264.4064 11.86143717 79111
GLOBALSTAR M062 [-]     
1 26082U 00008B   23237.42369160 -.00000056  00000+0  30280-3 0  9991
2 26082  51.9820 241.7430 0006900 139.0268   7.1686 12.43409927 76798
GLOBALSTAR M060 [-]     
1 26083U 00008C   23236.14276302 -.00000038  00000+0  52729-3 0  9997
2 26083  52.0012 111.7181 0002583 215.8945 308.8474 12.17616379 71592
GLOBALSTAR M064 [-]     
1 26084U 00008D   23236.17990937 -.00000095  00000+0 -16361-3 0  9994
2 26084  52.0022 164.3002 0001023 233.6671 126.4067 11.88508951 88269
GLOBALSTAR M065 [+]     
1 31571U 07020A   23237.02878512 -.00000024  00000+0  44876-3 0  9994
2 31571  51.9890  81.5588 0009470 286.2072 195.0295 12.61950809750108
GLOBALSTAR M069 [+]     
1 31573U 07020C   23237.46848265 -.00000096  00000+0  41899-4 0  9998
2 31573  51.9963  36.4396 0001469  93.4742 284.1784 12.62267240750912
GLOBALSTAR M072 [+]     
1 31574U 07020D   23237.09523153 -.00000120  00000+0 -89807-4 0  9994
2 31574  52.0077 133.2471 0000980  20.1292 120.7233 12.62265049749361
GLOBALSTAR M071 [P]     
1 31576U 07020F   23237.41532686 -.00000095  00000+0  46358-4 0  9997
2 31576  52.0078  41.5340 0001867  91.9137 284.1653 12.62266715750891
